[{"OBJECT_NAME":"STARLINK-35063","OBJECT_ID":"2025-200J","EPOCH":"2026-03-09T17:50:32.797824","MEAN_MOTION":15.05649547,"ECCENTRICITY":9.152e-5,"INCLINATION":97.6022,"RA_OF_ASC_NODE":139.9246,"ARG_OF_PERICENTER":90.9918,"MEAN_ANOMALY":269.1413,"EPHEMERIS_TYPE":0,"CLASSIFICATION_TYPE":"U","NORAD_CAT_ID":65528,"ELEMENT_SET_NO":999,"REV_AT_EPOCH":2914,"BSTAR":0.00041114501,"MEAN_MOTION_DOT":5.876e-5,"MEAN_MOTION_DDOT":0},{"OBJECT_NAME":"UNKNOWN","OBJECT_ID":"","EPOCH":"2026-03-08T12:59:39.172704","MEAN_MOTION":15.0131728,"ECCENTRICITY":0.00204305,"INCLINATION":86.3534,"RA_OF_ASC_NODE":358.469,"ARG_OF_PERICENTER":121.5673,"MEAN_ANOMALY":238.7558,"EPHEMERIS_TYPE":0,"CLASSIFICATION_TYPE":"U","NORAD_CAT_ID":270086,"ELEMENT_SET_NO":999,"REV_AT_EPOCH":9441,"BSTAR":0.0053525659,"MEAN_MOTION_DOT":0.00069778,"MEAN_MOTION_DDOT":0}]
